ZHONGXING-2E            
1 49062U 21071A   26192.93978600 -.00000288  00000+0  00000+0 0  9991
2 49062   0.0620 236.4706 0001144 269.7408 220.0179  1.00271746 18283
TJS-7                   
1 49115U 21077A   26192.83033597 -.00000119  00000+0  00000+0 0  9995
2 49115   0.2953 264.1277 0003038 108.9522 116.0739  1.00269601  9798
CHINASAT 9B             
1 49125U 21080A   26192.93673558 -.00000309  00000+0  00000+0 0  9999
2 49125   0.0247  86.1120 0002123  60.9202 221.4461  1.00270012 17899
SHIJIAN-21 (SJ-21)      
1 49330U 21094A   26192.94953339 -.00000349  00000+0  00000+0 0  9995
2 49330   5.1690  61.0262 0051714 168.9129 169.5546  1.00279493  5605
SES-17                  
1 49332U 21095A   26192.21382525 -.00000265  00000+0  00000+0 0  9998
2 49332   0.0219  45.8226 0001105  94.4892 158.6910  1.00271236 18095
SYRACUSE 4A             
1 49333U 21095B   26192.43127109  .00000000  00000+0  00000+0 0  9994
2 49333   0.0264  45.4406 0001589  64.7984  19.8596  1.00266868 18194
QZS-1R (MICHIBIKI-1R)   
1 49336U 21096A   26191.59113988 -.00000288  00000+0  00000+0 0  9993
2 49336  37.5070  79.2376 0754836 272.1562 282.0570  1.00246773 17249
ZHONGXING-1D            
1 49505U 21114A   26192.80459584 -.00000332  00000+0  00000+0 0  9992
2 49505   0.0484 236.7759 0000512  27.9236  84.8571  1.00270201 17067
STPSAT-6                
1 49817U 21118A   26192.68539333 -.00000040  00000+0  00000+0 0  9995
2 49817   0.3813  85.1346 0000973 237.2541 102.1747  1.00269776 16812
EXPRESS AMU-7           
1 50001U 21123A   26192.94991869 -.00000239  00000+0  00000+0 0  9993
2 50001   0.0245 291.7279 0000455 272.4891 212.6010  1.00271991 16787
EXPRESS AMU-3           
1 50002U 21123B   26192.90916347  .00000000  00000+0  00000+0 0  9993
2 50002   0.0161 357.6267 0000161  34.4321 327.9421  1.00270008  7270
TIANLIAN 2-02           
1 50005U 21124A   26192.74140938 -.00000011  00000+0  00000+0 0  9997
2 50005   0.8614  85.7631 0001480 163.7665 117.9937  1.00270433 16866
TURKSAT 5B              
1 50212U 21126A   26192.43057775  .00000152  00000+0  00000+0 0  9996
2 50212   0.0690 339.9573 0002473  11.1708 135.2148  1.00272499 16544
INMARSAT 6-F1           
1 50319U 21128A   26192.08252015 -.00000164  00000+0  00000+0 0  9995
2 50319   0.0136 327.4277 0000239 223.1674 211.8554  1.00273125 16498
SHIYAN-12 01 (SY-12 01) 
1 50321U 21129A   26192.70861875  .00000152  00000+0  00000+0 0  9994
2 50321   3.7350  79.5804 0002599 284.7123 220.4704  1.00049347 16741
SHIYAN-12 02 (SY-12 02) 
1 50322U 21129B   26192.76690971 -.00000356  00000+0  00000+0 0  9995
2 50322   3.7342  79.5798 0003034  70.3598 163.6304  1.00478973 16740
TJS-9                   
1 50574U 21135A   26192.87729818 -.00000294  00000+0  00000+0 0  9997
2 50574   0.0397 112.1329 0002321 315.6863 315.0109  1.00273854 16670
GOES 18                 
1 51850U 22021A   26192.75163609  .00000101  00000+0  00000+0 0  9993
2 51850   0.0131  84.2137 0000611 110.7308 228.2976  1.00272566  6831
ZHONGXING-6D            
1 52255U 22038A   26191.85051813 -.00000345  00000+0  00000+0 0  9995
2 52255   0.0368 245.9029 0000497 273.1623 200.9345  1.00274385 15664
NILESAT 301             
1 52817U 22061A   26192.84873052 -.00000054  00000+0  00000+0 0  9999
2 52817   0.0471 346.8347 0003575  91.1621 150.3392  1.00269155 14986
CMS-02 (GSAT-24)        
1 52903U 22067A   26192.89822432 -.00000161  00000+0  00000+0 0  9991
2 52903   0.0147  97.2036 0000674 250.7375 348.2140  1.00271858 14858
MEASAT 3D               
1 52904U 22067B   26192.01272836 -.00000235  00000+0  00000+0 0  9995
2 52904   0.0532 301.4385 0000127 111.5907 331.9809  1.00281320 14881
SES-22                  
1 52933U 22071A   26192.75128942  .00000109  00000+0  00000+0 0  9990
2 52933   0.0135 323.7237 0000781 140.1722 317.2039  1.00270024  7764
WFOV (USA 332)          
1 52940U 22073A   26192.73109598 -.00000361  00000+0  00000+0 0  9995
2 52940   3.7709  78.2171 0001531 214.9625  18.9544  1.00269035 14612
TIANLIAN 2-03           
1 53100U 22078A   26192.86155862  .00000076  00000+0  00000+0 0  9990
2 53100   0.7323  77.4449 0000934   1.1948 171.9044  1.00273239 14794
SBIRS GEO-6 (USA 336)   
1 53355U 22092A   26192.87764485 -.00000283  00000+0  00000+0 0  9997
2 53355   3.2173 317.8869 0001646 154.8464 272.0019  1.00270457 14484
EUTELSAT KONNECT VHTS   
1 53765U 22110A   26192.56548627  .00000022  00000+0  00000+0 0  9997
2 53765   0.0592  98.6683 0002698 345.1136  51.9526  1.00268378  7080
ZHONGXING-1E            
1 53813U 22112A   26193.00880105 -.00000146  00000+0  00000+0 0  9991
2 53813   0.0618 234.4541 0000925  47.3638  92.6391  1.00272942 14098
SES-20                  
1 53960U 22123A   26192.34060527 -.00000095  00000+0  00000+0 0  9993
2 53960   0.0158  63.9469 0001994  39.3505 205.4723  1.00274431 13777
SES-21                  
1 53961U 22123B   26192.68157998  .00000000  00000+0  00000+0 0  9995
2 53961   0.0391  33.3682 0000972  75.9034 294.7571  1.00268248  7452
GALAXY 33 (G-33)        
1 54026U 22128A   26192.68114664  .00000084  00000+0  00000+0 0  9998
2 54026   0.0122  32.2314 0001763  86.9299 282.6342  1.00270934 13983
